NORAD_CAT_ID,OBJECT_NAME,OBJECT_TYPE,EPOCH,MEAN_MOTION,ECCENTRICITY,INCLINATION,RA_OF_ASC_NODE,ARG_OF_PERICENTER,MEAN_ANOMALY,BSTAR,MEAN_MOTION_DOT,MEAN_MOTION_DDOT,TLE_LINE0,TLE_LINE1,TLE_LINE2,SEMIMAJOR_AXIS,PERIOD,APOGEE,PERIGEE,DECAYED
53136.0,STARLINK-4152,PAYLOAD,2022-08-26 22:00:00,15.34194191,0.0001579,53.2174,209.6467,54.0284,143.707,-0.036643,-0.01123649,0.0,0 STARLINK-4152,1 53136U 22083E   22238.91667824 -.01123649  00000-0 -36643-1 0  9994,2 53136  53.2174 209.6467 0001579  54.0284 143.7070 15.34194191  1305,6841.4519999999975,93.86,464.397,462.237,0.0
53136.0,STARLINK-4152,PAYLOAD,2022-08-27 14:00:01,15.32590212,0.0001328,53.2172,206.5336,63.0094,216.9032,-0.038712,-0.0112762,0.0,0 STARLINK-4152,1 53136U 22083E   22239.58334491 -.01127620  00000-0 -38712-1 0  9991,2 53136  53.2172 206.5336 0001328  63.0094 216.9032 15.32590212  1308,6846.225,93.959,468.999,467.18,0.0
53136.0,STARLINK-4152,PAYLOAD,2022-08-27 20:00:01,15.31986271,0.0001491,53.2171,205.3668,58.6229,161.1127,-0.039352,-0.01124901,0.0,0 STARLINK-4152,1 53136U 22083E   22239.83334491 -.01124901  00000-0 -39352-1 0  9999,2 53136  53.2171 205.3668 0001491  58.6229 161.1127 15.31986271  7106,6848.024,93.996,470.91,468.86800000000005,0.0
53136.0,STARLINK-4152,PAYLOAD,2022-08-27 22:00:00,15.31784205,0.0001333,53.2174,204.9787,57.7834,261.772,-0.039458,-0.01121091,0.0,0 STARLINK-4152,1 53136U 22083E   22239.91667824 -.01121091  00000-0 -39458-1 0  9991,2 53136  53.2174 204.9787 0001333  57.7834 261.7720 15.31784205  1308,6848.626,94.008,471.404,469.578,0.0
53136.0,STARLINK-4152,PAYLOAD,2022-08-28 12:00:00,15.30381452,0.0001365999999999,53.2169,202.2653,56.3903,240.2152,-0.041434,-0.01126131,0.0,0 STARLINK-4152,1 53136U 22083E   22240.50001157 -.01126131  00000-0 -41434-1 0  9996,2 53136  53.2169 202.2653 0001366  56.3903 240.2152 15.30381452  7205,6852.81,94.094,475.611,473.739,0.0
53136.0,STARLINK-4152,PAYLOAD,2022-08-28 14:00:01,15.30180326,0.0001354,53.2173,201.8769,50.6125,345.3313,-0.0416589999999999,-0.01125247,0.0,0 STARLINK-4152,1 53136U 22083E   22240.58334491 -.01125247  00000-0 -41659-1 0  9990,2 53136  53.2173 201.8769 0001354  50.6125 345.3313 15.30180326  1301,6853.411,94.107,476.204,474.348,0.0
53136.0,STARLINK-4152,PAYLOAD,2022-08-28 22:00:00,15.29375163,0.0001475,53.2174,200.3278,50.0445,22.6475,-0.0425269999999999,-0.01120746,0.0,0 STARLINK-4152,1 53136U 22083E   22240.91667824 -.01120746  00000-0 -42527-1 0  9990,2 53136  53.2174 200.3278 0001475  50.0445  22.6475 15.29375163  1301,6855.816,94.156,478.692,476.67,0.0
53136.0,STARLINK-4152,PAYLOAD,2022-08-29 04:00:00,15.28774126,0.0001348,53.217,199.1698,52.9295,316.6883,-0.043433,-0.01123258,0.0,0 STARLINK-4152,1 53136U 22083E   22241.16667824 -.01123258  00000-0 -43433-1 0  9996,2 53136  53.2170 199.1698 0001348  52.9295 316.6883 15.28774126  7307,6857.613,94.193,480.402,478.55300000000005,0.0
53136.0,STARLINK-4152,PAYLOAD,2022-08-29 14:00:01,15.27770777,0.0001599,53.2173,197.2373,49.721,93.5703,-0.0447889999999999,-0.01123147,0.0,0 STARLINK-4152,1 53136U 22083E   22241.58334491 -.01123147  00000-0 -44789-1 0  9995,2 53136  53.2173 197.2373 0001599  49.7210  93.5703 15.27770777  1301,6860.615,94.255,483.577,481.383,0.0
53136.0,STARLINK-4152,PAYLOAD,2022-08-29 20:00:01,15.27167106,0.0001501999999999,53.2173,196.0791,49.2009,29.5715,-0.045523,-0.0112082,0.0,0 STARLINK-4152,1 53136U 22083E   22241.83334491 -.01120820  00000-0 -45523-1 0  9995,2 53136  53.2173 196.0791 0001502  49.2009  29.5715 15.27167106  7413,6862.4230000000025,94.292,485.318,483.257,0.0
53136.0,STARLINK-4152,PAYLOAD,2022-08-29 22:00:00,15.26966719,0.0001608,53.2175,195.6941,54.502,122.6425,-0.045793,-0.01120625,0.0,0 STARLINK-4152,1 53136U 22083E   22241.91667824 -.01120625  00000-0 -45793-1 0  9995,2 53136  53.2175 195.6941 0001608  54.5020 122.6425 15.26966719  1307,6863.023,94.305,485.992,483.785,0.0
53136.0,STARLINK-4152,PAYLOAD,2022-08-30 14:00:01,15.25362619,0.0001585,53.2174,192.6147,49.847,192.108,-0.048232,-0.01123807,0.0,0 STARLINK-4152,1 53136U 22083E   22242.58334491 -.01123807  00000-0 -48232-1 0  9996,2 53136  53.2174 192.6147 0001585  49.8470 192.1080 15.25362619  7528,6867.834,94.404,490.787,488.61,0.0
53136.0,STARLINK-4152,PAYLOAD,2022-08-30 22:00:00,15.24581921,0.0001517,53.2168,191.0783,54.0393,218.8601,-0.050615,-0.01164882,0.0,0 STARLINK-4152,1 53136U 22083E   22242.91667824 -.01164882  00000-0 -50615-1 0  9998,2 53136  53.2168 191.0783 0001517  54.0393 218.8601 15.24581921  1300,6870.178000000001,94.452,493.085,491.001,0.0
53136.0,STARLINK-4152,PAYLOAD,2022-08-31 12:00:00,15.23154112,0.0001483,53.2173,188.3926,60.2791,174.4899,-0.051488,-0.01137549,0.0,0 STARLINK-4152,1 53136U 22083E   22243.50001157 -.01137549  00000-0 -51488-1 0  9994,2 53136  53.2173 188.3926 0001483  60.2791 174.4899 15.23154112  7665,6874.471,94.541,497.355,495.316,0.0
53136.0,STARLINK-4152,PAYLOAD,2022-08-31 14:00:01,15.22954958,0.0001425,53.2172,188.0098,50.418,281.5169,-0.051934,-0.01140367,0.0,0 STARLINK-4152,1 53136U 22083E   22243.58334491 -.01140367  00000-0 -51934-1 0  9990,2 53136  53.2172 188.0098 0001425  50.4180 281.5169 15.22954958  1300,6875.07,94.553,497.915,495.955,0.0
53136.0,STARLINK-4152,PAYLOAD,2022-08-31 22:00:00,15.22181922,0.0001514,53.217,186.4786,47.1495,312.8325,-0.055049,-0.01178123,0.0,0 STARLINK-4152,1 53136U 22083E   22243.91667824 -.01178123  00000-0 -55049-1 0  9998,2 53136  53.2170 186.4786 0001514  47.1495 312.8325 15.22181922  1311,6877.398,94.601,500.304,498.221,0.0
53136.0,STARLINK-4152,PAYLOAD,2022-09-01 12:00:00,15.20745814,0.0001419,53.2173,183.8024,51.4044,265.3853,-0.055333,-0.01138234,0.0,0 STARLINK-4152,1 53136U 22083E   22244.50001157 -.01138234  00000-0 -55333-1 0  9990,2 53136  53.2173 183.8024 0001419  51.4044 265.3853 15.20745814  7815,6881.727,94.69,504.568,502.615,0.0
53136.0,STARLINK-4152,PAYLOAD,2022-09-01 14:00:01,15.20553417,0.0001610999999999,53.2174,183.4218,42.7995,10.4918,-0.05625,-0.01149665,0.0,0 STARLINK-4152,1 53136U 22083E   22244.58335648 -.01149665  00000-0 -56250-1 0  9992,2 53136  53.2174 183.4218 0001611  42.7995  10.4918 15.20553417  1304,6882.307,94.702,505.281,503.06300000000016,0.0
53136.0,STARLINK-4152,PAYLOAD,2022-09-01 22:00:00,15.19740702,0.0001651,53.2174,181.8945,43.6225,34.7804,-0.056829,-0.01135325,0.0,0 STARLINK-4152,1 53136U 22083E   22244.91667824 -.01135325  00000-0 -56829-1 0  9993,2 53136  53.2174 181.8945 0001651  43.6225  34.7804 15.19740702  1309,6884.761,94.753,507.762,505.489,0.0
53136.0,STARLINK-4152,PAYLOAD,2022-09-02 12:00:02,15.18336197,0.0001516,53.2174,179.2291,44.26300000000001,345.92800000000005,-0.059276,-0.01136597,0.0,0 STARLINK-4152,1 53136U 22083E   22245.50002315 -.01136597  00000-0 -59276-1 0  9998,2 53136  53.2174 179.2291 0001516  44.2630 345.9280 15.18336197  7973,6889.005999999999,94.841,511.915,509.826,0.0
53136.0,STARLINK-4152,PAYLOAD,2022-09-02 14:00:01,15.18133309,0.0001649,53.2175,178.8484,47.0692,78.779,-0.0594049999999999,-0.01132731,0.0,0 STARLINK-4152,1 53136U 22083E   22245.58334491 -.01132731  00000-0 -59405-1 0  9999,2 53136  53.2175 178.8484 0001649  47.0692  78.7790 15.18133309  1307,6889.619000000002,94.853,512.621,510.348,0.0
53136.0,STARLINK-4152,PAYLOAD,2022-09-02 22:00:01,15.17330994,0.000167,53.2175,177.3283,50.88800000000001,97.2981,-0.0608519999999999,-0.01133639,0.0,0 STARLINK-4152,1 53136U 22083E   22245.91668981 -.01133639  00000-0 -60852-1 0  9996,2 53136  53.2175 177.3283 0001670  50.8880  97.2981 15.17330994  1309,6892.0480000000025,94.903,515.064,512.762,0.0
53136.0,STARLINK-4152,PAYLOAD,2022-09-03 06:00:00,15.16583772,0.0001747,53.2172,175.8134,42.3996,126.9986,-0.066232,-0.0120167,0.0,0 STARLINK-4152,1 53136U 22083E   22246.25001157 -.01201670  00000-0 -66232-1 0  9999,2 53136  53.2172 175.8134 0001747  42.3996 126.9986 15.16583772  8083,6894.312,94.95,517.381,514.972,0.0
53136.0,STARLINK-4152,PAYLOAD,2022-09-03 14:00:01,15.15723921,0.0001705,53.2174,174.2934,48.5844,141.1945,-0.063568,-0.01131033,0.0,0 STARLINK-4152,1 53136U 22083E   22246.58334491 -.01131033  00000-0 -63568-1 0  9999,2 53136  53.2174 174.2934 0001705  48.5844 141.1945 15.15723921  1303,6896.919,95.004,519.96,517.6080000000002,0.0
53136.0,STARLINK-4152,PAYLOAD,2022-09-03 20:00:01,15.15121985,0.000186,53.2175,173.1571,40.2846,74.1201,-0.0646809999999999,-0.01131243,0.0,0 STARLINK-4152,1 53136U 22083E   22246.83334491 -.01131243  00000-0 -64681-1 0  9997,2 53136  53.2175 173.1571 0001860  40.2846  74.1201 15.15121985  8176,6898.745,95.042,521.893,519.327,0.0
53136.0,STARLINK-4152,PAYLOAD,2022-09-03 22:00:00,15.14927602,0.0001624,53.2174,172.7806,57.6887,151.4657,-0.06554,-0.01139227,0.0,0 STARLINK-4152,1 53136U 22083E   22246.91667824 -.01139227  00000-0 -65540-1 0  9990,2 53136  53.2174 172.7806 0001624  57.6887 151.4657 15.14927602  1307,6899.335,95.054,522.321,520.08,0.0
53136.0,STARLINK-4152,PAYLOAD,2022-09-04 12:00:00,15.13517416,0.0001754,53.2173,170.1331,46.5793,104.1739,-0.067837,-0.01133431,0.0,0 STARLINK-4152,1 53136U 22083E   22247.50001157 -.01133431  00000-0 -67837-1 0  9999,2 53136  53.2173 170.1331 0001754  46.5793 104.1739 15.13517416  8274,6903.62,95.143,526.696,524.274,0.0
53136.0,STARLINK-4152,PAYLOAD,2022-09-04 14:00:01,15.13314584,0.0001672,53.2174,169.7552,47.1649,197.9245,-0.067986,-0.01129723,0.0,0 STARLINK-4152,1 53136U 22083E   22247.58335648 -.01129723  00000-0 -67986-1 0  9996,2 53136  53.2174 169.7552 0001672  47.1649 197.9245 15.13314584  1300,6904.236999999999,95.155,527.256,524.948,0.0
53136.0,STARLINK-4152,PAYLOAD,2022-09-04 20:00:01,15.12713235,0.0001825,53.2176,168.6233,45.9116,121.5694,-0.069227,-0.01130951,0.0,0 STARLINK-4152,1 53136U 22083E   22247.83334491 -.01130951  00000-0 -69227-1 0  9994,2 53136  53.2176 168.6233 0001825  45.9116 121.5694 15.12713235  1307,6906.066999999999,95.193,529.192,526.6709999999998,0.0
